TDRS 3                  
1 19548U 88091B   22302.52965925 -.00000296  00000+0  00000+0 0  9991
2 19548  13.6192 350.2723 0036567 327.8036 221.3838  1.00280759112080
HST                     
1 20580U 90037B   22302.60059763  .00003625  00000+0  20008-3 0  9997
2 20580  28.4716 359.5980 0002717  52.0781  73.4676 15.11139963586522
TDRS 5                  
1 21639U 91054B   22302.37270220  .00000088  00000+0  00000+0 0  9996
2 21639  14.2288   3.5968 0022456 354.9434   5.9101  1.00263892114407
TDRS 6                  
1 22314U 93003B   22302.87471463 -.00000292  00000+0  00000+0 0  9998
2 22314  14.1406   6.8492 0009394 146.1373 154.2930  1.00275117109108
TDRS 7                  
1 23613U 95035B   22302.84931078 -.00000199  00000+0  00000+0 0  9994
2 23613  13.9275 357.5490 0024289  57.0209  14.1812  1.00270254 99955
ISS (ZARYA)             
1 25544U 98067A   22302.76591278  .00013125  00000+0  24143-3 0  9992
2 25544  51.6445  29.8847 0006083  18.6921 127.6792 15.49526609366050
LANDSAT 7               
1 25682U 99020A   22302.91382419  .00000313  00000+0  74743-4 0  9994
2 25682  97.9640 345.8100 0001656  77.6085 282.5296 14.59827357252185
TERRA                   
1 25994U 99068A   22302.85325344  .00000495  00000+0  11528-3 0  9991
2 25994  98.1241  11.6393 0002815  81.6458  42.4150 14.58894612216077
TDRS 8                  
1 26388U 00034A   22302.84900368 -.00000226  00000+0  00000+0 0  9990
2 26388  10.5790  41.6114 0017356 337.1807  53.9693  1.00264385 81888
TIMED                   
1 26998U 01055B   22302.36992293  .00001204  00000+0  13221-3 0  9995
2 26998  74.0742  12.8157 0002180 256.0891 104.0048 14.88901912132934
TDRS 9                  
1 27389U 02011A   22302.37834365 -.00000281  00000+0  00000+0 0  9991
2 27389   9.3035  59.5805 0023670 293.4345 118.6599  1.00273737 77149
AQUA                    
1 27424U 02022A   22302.85834660  .00000942  00000+0  21761-3 0  9998
2 27424  98.2597 243.5493 0001348 104.3829 330.1712 14.57466074 89765
TDRS 10                 
1 27566U 02055A   22302.62840280  .00000094  00000+0  00000+0 0  9998
2 27566   8.4474  49.1920 0004081 330.0748  73.7812  1.00270595 72936
SORCE                   
1 27651U 03004A   22302.77988685  .00002694  00000+0  28521-3 0  9996
2 27651  39.9939 187.2759 0023263 334.0253  25.9367 14.90306352 73117
AURA                    
1 28376U 04026A   22302.88253268  .00000969  00000+0  22529-3 0  9995
2 28376  98.2218 244.3502 0001203  86.0948 274.0388 14.57094892972840
SWIFT                   
1 28485U 04047A   22302.77302104  .00006297  00000+0  37519-3 0  9996
2 28485  20.5566  86.9118 0010171 200.2027 159.8005 15.07326949983834
THEMIS A                
1 30580U 07004A   22302.69704186 -.00000322  00000+0 -48065-1 0  9999
2 30580  13.0914 331.2904 8365364 193.5096 315.1595  0.87835362 29615
THEMIS D                
1 30797U 07004D   22302.76675731 -.00000349  00000+0  00000+0 0  9993
2 30797   8.9227 319.9152 8320238 208.0849 349.1493  0.87837602 29413
THEMIS E                
1 30798U 07004E   22302.70139094 -.00000375  00000+0  00000+0 0  9994
2 30798   9.9606 334.5964 8312689 195.3728 319.0016  0.87841080 54257
AIM                     
1 31304U 07015A   22302.54850670  .00017229  00000+0  80223-3 0  9996
2 31304  97.8549 226.9199 0002354 282.9463  77.1507 15.19992062851545
FGRST (GLAST)           
1 33053U 08029A   22302.77224338  .00002777  00000+0  13799-3 0  9992
2 33053  25.5835 331.0301 0011540 297.5755  62.3608 15.12596197794052
WISE                    
1 36119U 09071A   22302.67260886  .00009504  00000+0  27902-3 0  9999
2 36119  97.2267 334.4674 0002939 142.0996 218.0455 15.35349217716087
TDRS 11                 
1 39070U 13004A   22302.80674406  .00000081  00000+0  00000+0 0  9998
2 39070   2.8258 350.0756 0003877  76.6716  87.3962  1.00272962 33392
TDRS 12                 
1 39504U 14004A   22302.60599020 -.00000268  00000+0  00000+0 0  9995
2 39504   3.7571 349.7541 0002162 185.4037  39.9049  1.00266402 30972
GPM-CORE                
1 39574U 14009C   22302.90132614  .00018017  00000+0  25500-3 0  9998
2 39574  64.9998  90.6733 0007820 271.3684  88.6566 15.56581375492539
MMS 1                   
1 40482U 15011A   22299.86693682 -.00000203  00000+0  00000+0 0  9992
2 40482  30.4836  95.2111 8820111  63.8381 227.6308  0.28531546 13672
MMS 2                   
1 40483U 15011B   22300.80443682 -.00000312  00000+0  00000+0 0  9994
2 40483  30.4460  94.9362 8823148  64.0802 323.8769  0.28534072 13738
MMS 3                   
1 40484U 15011C   22299.87804793 -.00000204  00000+0  00000+0 0  9993
2 40484  30.4837  95.1759 8820559  63.8529 228.8333  0.28531368 13417
MMS 4                   
1 40485U 15011D   22299.88082571 -.00000205  00000+0  00000+0 0  9998
2 40485  30.4841  95.2181 8822820  63.8152 229.0881  0.28534761 13622
TDRS 13                 
1 42915U 17047A   22302.40952105 -.00000097  00000+0  00000+0 0  9990
2 42915   4.2970 334.8206 0015005 124.8761  74.0750  1.00271777 19040
JPSS-1                  
1 43013U 17073A   22303.06017391  .00000109  00000+0  72587-4 0  9998
2 43013  98.7272 239.5572 0001507  68.1762 291.9574 14.19554441256327
